<?xml version="1.0" encoding="UTF-8"?>
<gpx version="1.1" creator="Spidey Pokemon GO" xmlns="http://www.topografix.com/GPX/1/1">
  <metadata><name>The Pokémon Centre Stamp Rally — Japão</name></metadata>
  <wpt lat="33.5891079" lon="130.4189541"><name>1 Fukuoka - Pokémon Center Fukuoka</name></wpt>
  <wpt lat="34.3975655" lon="132.4760766"><name>2 Hiroshima - Pokémon Center Hiroshima</name></wpt>
  <wpt lat="35.729001" lon="139.719222"><name>3 Tóquio - Pokémon Center Mega Tokyo</name></wpt>
  <wpt lat="36.579525" lon="136.6502223"><name>4 Kanazawa - Pokémon Center Kanazawa</name></wpt>
  <wpt lat="35.003299" lon="135.758527"><name>5 Kyoto - Pokémon Center Kyoto</name></wpt>
  <wpt lat="35.1634532" lon="136.9080594"><name>6 Nagoya - Pokémon Center Nagoya</name></wpt>
  <wpt lat="26.3137481" lon="127.7962646"><name>7 Okinawa - Pokémon Center Okinawa</name></wpt>
  <wpt lat="34.7018922" lon="135.4965156"><name>8 Osaka - Pokémon Center Osaka</name></wpt>
  <wpt lat="34.6730521" lon="135.5008889"><name>9 Osaka - Pokémon Center Osaka DX</name></wpt>
  <wpt lat="43.0673036" lon="141.3491093"><name>10 Sapporo - Pokémon Center Sapporo</name></wpt>
  <wpt lat="35.6618975" lon="139.6984319"><name>11 Tóquio - Pokémon Center Shibuya</name></wpt>
  <wpt lat="35.710219" lon="139.81263"><name>12 Tóquio - Pokémon Center Skytree Town</name></wpt>
  <wpt lat="38.262002" lon="140.881438"><name>13 Sendai - Pokémon Center Tohoku</name></wpt>
  <wpt lat="35.6865458" lon="139.9889456"><name>14 Funabashi - Pokémon Center Tokyo-Bay</name></wpt>
  <wpt lat="35.6802407" lon="139.7744405"><name>15 Tóquio - Pokémon Center Tokyo DX</name></wpt>
  <wpt lat="35.464574" lon="139.624579"><name>16 Yokohama - Pokémon Center Yokohama</name></wpt>
  <wpt lat="34.3422443" lon="134.0502726"><name>17 Takamatsu - Pokémon Store / ponto temporário Takamatsu</name></wpt>
</gpx>